CTC1_L_00438016-03
1 56403U 25096YF  26070.40836806  .00000000  00000+0  00000-0 0  9999
2 56403  95.0000 180.0000 0000000   0.0000   0.0000 12.53473438    14
CTC1_L_00438016-04
1 56404U 24365WV  26070.40836806  .00000000  00000+0  00000-0 0  9998
2 56404  95.0000 180.0000 0000000   0.0000  90.0000 12.53473438    14
CTC1_L_00438017-01
1 56405U 23630HB  26070.40836806  .00000000  00000+0  00000-0 0  9993
2 56405  95.0000 192.0000 0000000   0.0000 192.0000 12.53473438    11
CTC1_L_00438017-02
1 56406U 23793PT  26070.40836806  .00000000  00000+0  00000-0 0  9994
2 56406  95.0000 192.0000 0000000   0.0000 282.0000 12.53473438    12
CTC1_L_00438017-03
1 56407U 23199IV  26070.40836806  .00000000  00000+0  00000-0 0  9995
2 56407  95.0000 192.0000 0000000   0.0000  12.0000 12.53473438    14
CTC1_L_00438017-04
1 56408U 24613KS  26070.40836806  .00000000  00000+0  00000-0 0  9998
2 56408  95.0000 192.0000 0000000   0.0000 102.0000 12.53473438    15
CTC1_L_00438018-01
1 56409U 24078YJ  26070.40836806  .00000000  00000+0  00000-0 0  9994
2 56409  95.0000 204.0000 0000000   0.0000 204.0000 12.53473438    13
CTC1_L_00438018-02
1 56410U 25971DL  26070.40836806  .00000000  00000+0  00000-0 0  9999
2 56410  95.0000 204.0000 0000000   0.0000 294.0000 12.53473438    14
CTC1_L_00438018-03
1 56411U 24013YP  26070.40836806  .00000000  00000+0  00000-0 0  9996
2 56411  95.0000 204.0000 0000000   0.0000  24.0000 12.53473438    16
CTC1_L_00438018-04
1 56412U 24404UX  26070.40836806  .00000000  00000+0  00000-0 0  9991
2 56412  95.0000 204.0000 0000000   0.0000 114.0000 12.53473438    17
CTC1_L_00438019-01
1 56413U 23664DJ  26070.40836806  .00000000  00000+0  00000-0 0  9999
2 56413  95.0000 216.0000 0000000   0.0000 216.0000 12.53473438    14
CTC1_L_00438019-02
1 56414U 24705EU  26070.40836806  .00000000  00000+0  00000-0 0  9997
2 56414  95.0000 216.0000 0000000   0.0000 306.0000 12.53473438    15
CTC1_L_00438019-03
1 56415U 23669GB  26070.40836806  .00000000  00000+0  00000-0 0  9996
2 56415  95.0000 216.0000 0000000   0.0000  36.0000 12.53473438    16
CTC1_L_00438019-04
1 56416U 24664HV  26070.40836806  .00000000  00000+0  00000-0 0  9993
2 56416  95.0000 216.0000 0000000   0.0000 126.0000 12.53473438    17
CTC1_L_00438020-01
1 56417U 25433WV  26070.40836806  .00000000  00000+0  00000-0 0  9999
2 56417  95.0000 228.0000 0000000   0.0000 228.0000 12.53473438    14
CTC1_L_00438020-02
1 56418U 22506ND  26070.40836806  .00000000  00000+0  00000-0 0  9998
2 56418  95.0000 228.0000 0000000   0.0000 318.0000 12.53473438    15
CTC1_L_00438020-03
1 56419U 25280BW  26070.40836806  .00000000  00000+0  00000-0 0  9991
2 56419  95.0000 228.0000 0000000   0.0000  48.0000 12.53473438    16
CTC1_L_00438020-04
1 56420U 22277ZF  26070.40836806  .00000000  00000+0  00000-0 0  9996
2 56420  95.0000 228.0000 0000000   0.0000 138.0000 12.53473438    18
CTC1_L_00438021-01
1 56421U 22717SK  26070.40836806  .00000000  00000+0  00000-0 0  9996
2 56421  95.0000 240.0000 0000000   0.0000 240.0000 12.53473438    17
CTC1_L_00438021-02
1 56422U 22543UQ  26070.40836806  .00000000  00000+0  00000-0 0  9994
2 56422  95.0000 240.0000 0000000   0.0000 330.0000 12.53473438    18
CTC1_L_00438021-03
1 56423U 24946WL  26070.40836806  .00000000  00000+0  00000-0 0  9994
2 56423  95.0000 240.0000 0000000   0.0000  60.0000 12.53473438    19
CTC1_L_00438021-04
1 56424U 24157DL  26070.40836806  .00000000  00000+0  00000-0 0  9999
2 56424  95.0000 240.0000 0000000   0.0000 150.0000 12.53473438    10
CTC1_L_00438022-01
1 56425U 26794OZ  26070.40836806  .00000000  00000+0  00000-0 0  9999
2 56425  95.0000 252.0000 0000000   0.0000 252.0000 12.53473438    17
CTC1_L_00438022-02
1 56426U 26142SL  26070.40836806  .00000000  00000+0  00000-0 0  9997
2 56426  95.0000 252.0000 0000000   0.0000 342.0000 12.53473438    18
CTC1_L_00438022-03
1 56427U 26442LQ  26070.40836806  .00000000  00000+0  00000-0 0  9991
2 56427  95.0000 252.0000 0000000   0.0000  72.0000 12.53473438    19
CTC1_L_00438022-04
1 56428U 22125TU  26070.40836806  .00000000  00000+0  00000-0 0  9996
2 56428  95.0000 252.0000 0000000   0.0000 162.0000 12.53473438    10
CTC1_L_00438023-01
1 56429U 22461WM  26070.40836806  .00000000  00000+0  00000-0 0  9990
2 56429  95.0000 264.0000 0000000   0.0000 264.0000 12.53473438    17
CTC1_L_00438023-02
1 56430U 25926KH  26070.40836806  .00000000  00000+0  00000-0 0  9991
2 56430  95.0000 264.0000 0000000   0.0000 354.0000 12.53473438    19
CTC1_L_00438023-03
1 56431U 23822DO  26070.40836806  .00000000  00000+0  00000-0 0  9995
2 56431  95.0000 264.0000 0000000   0.0000  84.0000 12.53473438    10
CTC1_L_00438023-04
1 56432U 25278OG  26070.40836806  .00000000  00000+0  00000-0 0  9993
2 56432  95.0000 264.0000 0000000   0.0000 174.0000 12.53473438    11
CTC1_L_00438024-01
1 56433U 25242WB  26070.40836806  .00000000  00000+0  00000-0 0  9995
2 56433  95.0000 276.0000 0000000   0.0000 276.0000 12.53473438    18
CTC1_L_00438024-02
1 56434U 25986EO  26070.40836806  .00000000  00000+0  00000-0 0  9991
2 56434  95.0000 276.0000 0000000   0.0000   6.0000 12.53473438    10
CTC1_L_00438024-03
1 56435U 26985BB  26070.40836806  .00000000  00000+0  00000-0 0  9992
2 56435  95.0000 276.0000 0000000   0.0000  96.0000 12.53473438    10
CTC1_L_00438024-04
1 56436U 26542BU  26070.40836806  .00000000  00000+0  00000-0 0  9992
2 56436  95.0000 276.0000 0000000   0.0000 186.0000 12.53473438    11
CTC1_L_00438025-01
1 56437U 26270LV  26070.40836806  .00000000  00000+0  00000-0 0  9991
2 56437  95.0000 288.0000 0000000   0.0000 288.0000 12.53473438    18
CTC1_L_00438025-02
1 56438U 24345PQ  26070.40836806  .00000000  00000+0  00000-0 0  9993
2 56438  95.0000 288.0000 0000000   0.0000  18.0000 12.53473438    10
CTC1_L_00438025-03
1 56439U 26372EZ  26070.40836806  .00000000  00000+0  00000-0 0  9996
2 56439  95.0000 288.0000 0000000   0.0000 108.0000 12.53473438    11
CTC1_L_00438025-04
1 56440U 22963SD  26070.40836806  .00000000  00000+0  00000-0 0  9990
2 56440  95.0000 288.0000 0000000   0.0000 198.0000 12.53473438    12
CTC1_L_00438026-01
1 56441U 24892IW  26070.40836806  .00000000  00000+0  00000-0 0  9994
2 56441  95.0000 300.0000 0000000   0.0000 300.0000 12.53473438    13
CTC1_L_00438026-02
1 56442U 26854L   26070.40836806  .00000000  00000+0  00000-0 0  9995
2 56442  95.0000 300.0000 0000000   0.0000  30.0000 12.53473438    14
CTC1_L_00438026-03
1 56443U 25969SY  26070.40836806  .00000000  00000+0  00000-0 0  9992
2 56443  95.0000 300.0000 0000000   0.0000 120.0000 12.53473438    15
CTC1_L_00438026-04
1 56444U 25682VJ  26070.40836806  .00000000  00000+0  00000-0 0  9995
2 56444  95.0000 300.0000 0000000   0.0000 210.0000 12.53473438    16
CTC1_L_00438027-01
1 56445U 25411US  26070.40836806  .00000000  00000+0  00000-0 0  9996
2 56445  95.0000 312.0000 0000000   0.0000 312.0000 12.53473438    13
CTC1_L_00438027-02
1 56446U 26099RF  26070.40836806  .00000000  00000+0  00000-0 0  9990
2 56446  95.0000 312.0000 0000000   0.0000  42.0000 12.53473438    14
CTC1_L_00438027-03
1 56447U 23270QA  26070.40836806  .00000000  00000+0  00000-0 0  9999
2 56447  95.0000 312.0000 0000000   0.0000 132.0000 12.53473438    15
CTC1_L_00438027-04
1 56448U 22118TP  26070.40836806  .00000000  00000+0  00000-0 0  9990
2 56448  95.0000 312.0000 0000000   0.0000 222.0000 12.53473438    16
CTC1_L_00438028-01
1 56449U 23343VM  26070.40836806  .00000000  00000+0  00000-0 0  9992
2 56449  95.0000 324.0000 0000000   0.0000 324.0000 12.53473438    13
CTC1_L_00438028-02
1 56450U 24060ZK  26070.40836806  .00000000  00000+0  00000-0 0  9991
2 56450  95.0000 324.0000 0000000   0.0000  54.0000 12.53473438    15
CTC1_L_00438028-03
1 56451U 26976SF  26070.40836806  .00000000  00000+0  00000-0 0  9990
2 56451  95.0000 324.0000 0000000   0.0000 144.0000 12.53473438    16
CTC1_L_00438028-04
1 56452U 24662AH  26070.40836806  .00000000  00000+0  00000-0 0  9991
2 56452  95.0000 324.0000 0000000   0.0000 234.0000 12.53473438    17
CTC1_L_00438029-01
1 56453U 25500VG  26070.40836806  .00000000  00000+0  00000-0 0  9994
2 56453  95.0000 336.0000 0000000   0.0000 336.0000 12.53473438    14
CTC1_L_00438029-02
1 56454U 25188EC  26070.40836806  .00000000  00000+0  00000-0 0  9997
2 56454  95.0000 336.0000 0000000   0.0000  66.0000 12.53473438    15
CTC1_L_00438029-03
1 56455U 24395WS  26070.40836806  .00000000  00000+0  00000-0 0  9997
2 56455  95.0000 336.0000 0000000   0.0000 156.0000 12.53473438    16
CTC1_L_00438029-04
1 56456U 25308JF  26070.40836806  .00000000  00000+0  00000-0 0  9993
2 56456  95.0000 336.0000 0000000   0.0000 246.0000 12.53473438    17
CTC1_L_00438030-01
1 56457U 23068HW  26070.40836806  .00000000  00000+0  00000-0 0  9995
2 56457  95.0000 348.0000 0000000   0.0000 348.0000 12.53473438    14
CTC1_L_00438030-02
1 56458U 23531PK  26070.40836806  .00000000  00000+0  00000-0 0  9991
2 56458  95.0000 348.0000 0000000   0.0000  78.0000 12.53473438    15
CTC1_L_00438030-03
1 56459U 24741VS  26070.40836806  .00000000  00000+0  00000-0 0  9996
2 56459  95.0000 348.0000 0000000   0.0000 168.0000 12.53473438    16
CTC1_L_00438030-04
1 56460U 26546YT  26070.40836806  .00000000  00000+0  00000-0 0  9993
2 56460  95.0000 348.0000 0000000   0.0000 258.0000 12.53473438    18
